ORBCOMM FM24            
1 25478U 98053D   24184.85116335  .00001911  00000+0  70151-3 0  9990
2 25478  45.0072 122.8388 0002414 308.2266  51.8364 14.35896127347193
ORBCOMM FM25            
1 25479U 98053E   24184.88779226  .00001827  00000+0  67297-3 0  9991
2 25479  45.0067 120.9139 0004954 306.6191  53.4200 14.35876441347498
ORBCOMM FM26            
1 25480U 98053F   24184.91560326  .00001638  00000+0  61531-3 0  9991
2 25480  45.0071 115.1335 0007074 321.4990  38.5352 14.35289022347436
ORBCOMM FM27            
1 25481U 98053G   24184.87640076  .00002085  00000+0  76119-3 0  9993
2 25481  45.0048 121.2300 0001427 346.0163  14.0645 14.35865351347420
ORBCOMM FM30            
1 25980U 99065A   24184.73330957  .00001604  00000+0  60222-3 0  9994
2 25980  45.0323 301.5768 0004280  62.5615 297.5668 14.35430271284201
ORBCOMM FM31            
1 25981U 99065B   24184.76857884  .00001482  00000+0  56015-3 0  9990
2 25981  45.0241 295.0659 0002056 112.8149 247.2916 14.35422616283769
ORBCOMM FM32            
1 25982U 99065C   24184.85688796  .00001450  00000+0  55977-3 0  9996
2 25982  45.0167 308.8327 0004417 100.6069 259.5276 14.34428679284402
