<?xml version="1.0" encoding="UTF-8"?>
<ndm xmlns:xsi="http://www.w3.org/2001/XMLSchema-instance" xsi:noNamespaceSchemaLocation="https://sanaregistry.org/r/ndmxml_unqualified/ndmxml-2.0.0-master-2.0.xsd">
<omm id="CCSDS_OMM_VERS" version="2.0">
<header><CREATION_DATE/><ORIGINATOR/></header><body><segment><metadata><OBJECT_NAME>ORBCOMM FM24</OBJECT_NAME><OBJECT_ID>1998-053D</OBJECT_ID><CENTER_NAME>EARTH</CENTER_NAME><REF_FRAME>TEME</REF_FRAME><TIME_SYSTEM>UTC</TIME_SYSTEM><MEAN_ELEMENT_THEORY>SGP4</MEAN_ELEMENT_THEORY></metadata><data><meanElements><EPOCH>2024-07-02T20:25:40.513440</EPOCH><MEAN_MOTION>14.35896127</MEAN_MOTION><ECCENTRICITY>.0002414</ECCENTRICITY><INCLINATION>45.0072</INCLINATION><RA_OF_ASC_NODE>122.8388</RA_OF_ASC_NODE><ARG_OF_PERICENTER>308.2266</ARG_OF_PERICENTER><MEAN_ANOMALY>51.8364</MEAN_ANOMALY></meanElements><tleParameters><EPHEMERIS_TYPE>0</EPHEMERIS_TYPE><CLASSIFICATION_TYPE>U</CLASSIFICATION_TYPE><NORAD_CAT_ID>25478</NORAD_CAT_ID><ELEMENT_SET_NO>999</ELEMENT_SET_NO><REV_AT_EPOCH>34719</REV_AT_EPOCH><BSTAR>.70151E-3</BSTAR><MEAN_MOTION_DOT>.1911E-4</MEAN_MOTION_DOT><MEAN_MOTION_DDOT>0</MEAN_MOTION_DDOT></tleParameters></data></segment></body></omm>
<omm id="CCSDS_OMM_VERS" version="2.0">
<header><CREATION_DATE/><ORIGINATOR/></header><body><segment><metadata><OBJECT_NAME>ORBCOMM FM25</OBJECT_NAME><OBJECT_ID>1998-053E</OBJECT_ID><CENTER_NAME>EARTH</CENTER_NAME><REF_FRAME>TEME</REF_FRAME><TIME_SYSTEM>UTC</TIME_SYSTEM><MEAN_ELEMENT_THEORY>SGP4</MEAN_ELEMENT_THEORY></metadata><data><meanElements><EPOCH>2024-07-02T21:18:25.251264</EPOCH><MEAN_MOTION>14.35876441</MEAN_MOTION><ECCENTRICITY>.0004954</ECCENTRICITY><INCLINATION>45.0067</INCLINATION><RA_OF_ASC_NODE>120.9139</RA_OF_ASC_NODE><ARG_OF_PERICENTER>306.6191</ARG_OF_PERICENTER><MEAN_ANOMALY>53.4200</MEAN_ANOMALY></meanElements><tleParameters><EPHEMERIS_TYPE>0</EPHEMERIS_TYPE><CLASSIFICATION_TYPE>U</CLASSIFICATION_TYPE><NORAD_CAT_ID>25479</NORAD_CAT_ID><ELEMENT_SET_NO>999</ELEMENT_SET_NO><REV_AT_EPOCH>34749</REV_AT_EPOCH><BSTAR>.67297E-3</BSTAR><MEAN_MOTION_DOT>.1827E-4</MEAN_MOTION_DOT><MEAN_MOTION_DDOT>0</MEAN_MOTION_DDOT></tleParameters></data></segment></body></omm>
<omm id="CCSDS_OMM_VERS" version="2.0">
<header><CREATION_DATE/><ORIGINATOR/></header><body><segment><metadata><OBJECT_NAME>ORBCOMM FM26</OBJECT_NAME><OBJECT_ID>1998-053F</OBJECT_ID><CENTER_NAME>EARTH</CENTER_NAME><REF_FRAME>TEME</REF_FRAME><TIME_SYSTEM>UTC</TIME_SYSTEM><MEAN_ELEMENT_THEORY>SGP4</MEAN_ELEMENT_THEORY></metadata><data><meanElements><EPOCH>2024-07-02T21:58:28.121664</EPOCH><MEAN_MOTION>14.35289022</MEAN_MOTION><ECCENTRICITY>.0007074</ECCENTRICITY><INCLINATION>45.0071</INCLINATION><RA_OF_ASC_NODE>115.1335</RA_OF_ASC_NODE><ARG_OF_PERICENTER>321.4990</ARG_OF_PERICENTER><MEAN_ANOMALY>38.5352</MEAN_ANOMALY></meanElements><tleParameters><EPHEMERIS_TYPE>0</EPHEMERIS_TYPE><CLASSIFICATION_TYPE>U</CLASSIFICATION_TYPE><NORAD_CAT_ID>25480</NORAD_CAT_ID><ELEMENT_SET_NO>999</ELEMENT_SET_NO><REV_AT_EPOCH>34743</REV_AT_EPOCH><BSTAR>.61531E-3</BSTAR><MEAN_MOTION_DOT>.1638E-4</MEAN_MOTION_DOT><MEAN_MOTION_DDOT>0</MEAN_MOTION_DDOT></tleParameters></data></segment></body></omm>
<omm id="CCSDS_OMM_VERS" version="2.0">
<header><CREATION_DATE/><ORIGINATOR/></header><body><segment><metadata><OBJECT_NAME>ORBCOMM FM27</OBJECT_NAME><OBJECT_ID>1998-053G</OBJECT_ID><CENTER_NAME>EARTH</CENTER_NAME><REF_FRAME>TEME</REF_FRAME><TIME_SYSTEM>UTC</TIME_SYSTEM><MEAN_ELEMENT_THEORY>SGP4</MEAN_ELEMENT_THEORY></metadata><data><meanElements><EPOCH>2024-07-02T21:02:01.025664</EPOCH><MEAN_MOTION>14.35865351</MEAN_MOTION><ECCENTRICITY>.0001427</ECCENTRICITY><INCLINATION>45.0048</INCLINATION><RA_OF_ASC_NODE>121.2300</RA_OF_ASC_NODE><ARG_OF_PERICENTER>346.0163</ARG_OF_PERICENTER><MEAN_ANOMALY>14.0645</MEAN_ANOMALY></meanElements><tleParameters><EPHEMERIS_TYPE>0</EPHEMERIS_TYPE><CLASSIFICATION_TYPE>U</CLASSIFICATION_TYPE><NORAD_CAT_ID>25481</NORAD_CAT_ID><ELEMENT_SET_NO>999</ELEMENT_SET_NO><REV_AT_EPOCH>34742</REV_AT_EPOCH><BSTAR>.76119E-3</BSTAR><MEAN_MOTION_DOT>.2085E-4</MEAN_MOTION_DOT><MEAN_MOTION_DDOT>0</MEAN_MOTION_DDOT></tleParameters></data></segment></body></omm>
<omm id="CCSDS_OMM_VERS" version="2.0">
<header><CREATION_DATE/><ORIGINATOR/></header><body><segment><metadata><OBJECT_NAME>ORBCOMM FM30</OBJECT_NAME><OBJECT_ID>1999-065A</OBJECT_ID><CENTER_NAME>EARTH</CENTER_NAME><REF_FRAME>TEME</REF_FRAME><TIME_SYSTEM>UTC</TIME_SYSTEM><MEAN_ELEMENT_THEORY>SGP4</MEAN_ELEMENT_THEORY></metadata><data><meanElements><EPOCH>2024-07-02T17:35:57.946848</EPOCH><MEAN_MOTION>14.35430271</MEAN_MOTION><ECCENTRICITY>.000428</ECCENTRICITY><INCLINATION>45.0323</INCLINATION><RA_OF_ASC_NODE>301.5768</RA_OF_ASC_NODE><ARG_OF_PERICENTER>62.5615</ARG_OF_PERICENTER><MEAN_ANOMALY>297.5668</MEAN_ANOMALY></meanElements><tleParameters><EPHEMERIS_TYPE>0</EPHEMERIS_TYPE><CLASSIFICATION_TYPE>U</CLASSIFICATION_TYPE><NORAD_CAT_ID>25980</NORAD_CAT_ID><ELEMENT_SET_NO>999</ELEMENT_SET_NO><REV_AT_EPOCH>28420</REV_AT_EPOCH><BSTAR>.60222E-3</BSTAR><MEAN_MOTION_DOT>.1604E-4</MEAN_MOTION_DOT><MEAN_MOTION_DDOT>0</MEAN_MOTION_DDOT></tleParameters></data></segment></body></omm>
<omm id="CCSDS_OMM_VERS" version="2.0">
<header><CREATION_DATE/><ORIGINATOR/></header><body><segment><metadata><OBJECT_NAME>ORBCOMM FM31</OBJECT_NAME><OBJECT_ID>1999-065B</OBJECT_ID><CENTER_NAME>EARTH</CENTER_NAME><REF_FRAME>TEME</REF_FRAME><TIME_SYSTEM>UTC</TIME_SYSTEM><MEAN_ELEMENT_THEORY>SGP4</MEAN_ELEMENT_THEORY></metadata><data><meanElements><EPOCH>2024-07-02T18:26:45.211776</EPOCH><MEAN_MOTION>14.35422616</MEAN_MOTION><ECCENTRICITY>.0002056</ECCENTRICITY><INCLINATION>45.0241</INCLINATION><RA_OF_ASC_NODE>295.0659</RA_OF_ASC_NODE><ARG_OF_PERICENTER>112.8149</ARG_OF_PERICENTER><MEAN_ANOMALY>247.2916</MEAN_ANOMALY></meanElements><tleParameters><EPHEMERIS_TYPE>0</EPHEMERIS_TYPE><CLASSIFICATION_TYPE>U</CLASSIFICATION_TYPE><NORAD_CAT_ID>25981</NORAD_CAT_ID><ELEMENT_SET_NO>999</ELEMENT_SET_NO><REV_AT_EPOCH>28376</REV_AT_EPOCH><BSTAR>.56015E-3</BSTAR><MEAN_MOTION_DOT>.1482E-4</MEAN_MOTION_DOT><MEAN_MOTION_DDOT>0</MEAN_MOTION_DDOT></tleParameters></data></segment></body></omm>
<omm id="CCSDS_OMM_VERS" version="2.0">
<header><CREATION_DATE/><ORIGINATOR/></header><body><segment><metadata><OBJECT_NAME>ORBCOMM FM32</OBJECT_NAME><OBJECT_ID>1999-065C</OBJECT_ID><CENTER_NAME>EARTH</CENTER_NAME><REF_FRAME>TEME</REF_FRAME><TIME_SYSTEM>UTC</TIME_SYSTEM><MEAN_ELEMENT_THEORY>SGP4</MEAN_ELEMENT_THEORY></metadata><data><meanElements><EPOCH>2024-07-02T20:33:55.119744</EPOCH><MEAN_MOTION>14.34428679</MEAN_MOTION><ECCENTRICITY>.0004417</ECCENTRICITY><INCLINATION>45.0167</INCLINATION><RA_OF_ASC_NODE>308.8327</RA_OF_ASC_NODE><ARG_OF_PERICENTER>100.6069</ARG_OF_PERICENTER><MEAN_ANOMALY>259.5276</MEAN_ANOMALY></meanElements><tleParameters><EPHEMERIS_TYPE>0</EPHEMERIS_TYPE><CLASSIFICATION_TYPE>U</CLASSIFICATION_TYPE><NORAD_CAT_ID>25982</NORAD_CAT_ID><ELEMENT_SET_NO>999</ELEMENT_SET_NO><REV_AT_EPOCH>28440</REV_AT_EPOCH><BSTAR>.55977E-3</BSTAR><MEAN_MOTION_DOT>.145E-4</MEAN_MOTION_DOT><MEAN_MOTION_DDOT>0</MEAN_MOTION_DDOT></tleParameters></data></segment></body></omm>

</ndm>
